     3.04           N: GNSS NAV DATA    M: Mixed            RINEX VERSION / TYPE
CONVBIN 2.4.3                           20260621 175241 UTC PGM / RUN BY / DATE 
format: u-blox UBX                                          COMMENT             
log: C:\Users\RG\Documents\MATLAB\MATLAB IMPLEMENTATION\dataCOMMENT             
                                                            END OF HEADER       
S23 2026  6 21 12 54 56  .000000000000D+00  .000000000000D+00  .465850000000D+05
      .386679640000D+05  .000000000000D+00  .000000000000D+00  .100000000000D+01
      .168133080000D+05  .000000000000D+00  .000000000000D+00  .819200000000D+04
      .000000000000D+00  .000000000000D+00  .000000000000D+00  .000000000000D+00
S28 2026  6 21 12 57 36  .000000000000D+00  .000000000000D+00  .466290000000D+05
      .512765392000D+04  .107250000000D-02  .375000000000D-07  .100000000000D+01
      .418624596000D+05  .781250000000D-04  .125000000000D-07  .819200000000D+04
     -.298748000000D+02 -.360000000000D-04  .187500000000D-06  .000000000000D+00
S23 2026  6 21 12 57 36  .000000000000D+00  .000000000000D+00  .466610000000D+05
      .386679640000D+05  .000000000000D+00  .000000000000D+00  .100000000000D+01
      .168133080000D+05  .000000000000D+00  .000000000000D+00  .819200000000D+04
      .000000000000D+00  .000000000000D+00  .000000000000D+00  .000000000000D+00
